CCSDS_OMM_VERS = 2.0
CREATION_DATE  = 
ORIGINATOR     = 

OBJECT_NAME    = SL-14 R/B
OBJECT_ID      = 1991-042B
CENTER_NAME    = EARTH
REF_FRAME      = TEME
TIME_SYSTEM    = UTC
MEAN_ELEMENT_THEORY = SGP/SGP4

EPOCH          = 2025-12-08T20:45:58.341312
MEAN_MOTION    = 14.81733947
ECCENTRICITY   = .00170936
INCLINATION    = 82.4921
RA_OF_ASC_NODE = 305.3563
ARG_OF_PERICENTER = 174.2457
MEAN_ANOMALY   = 185.8957

EPHEMERIS_TYPE = 0
CLASSIFICATION_TYPE = U
NORAD_CAT_ID   = 21423
ELEMENT_SET_NO = 999
REV_AT_EPOCH   = 83962
BSTAR          = .11159845E-3
MEAN_MOTION_DOT = .905E-5
MEAN_MOTION_DDOT = 0

CCSDS_OMM_VERS = 2.0
CREATION_DATE  = 
ORIGINATOR     = 

OBJECT_NAME    = ERS-1
OBJECT_ID      = 1991-050A
CENTER_NAME    = EARTH
REF_FRAME      = TEME
TIME_SYSTEM    = UTC
MEAN_ELEMENT_THEORY = SGP/SGP4

EPOCH          = 2025-12-08T23:35:40.386048
MEAN_MOTION    = 14.39359602
ECCENTRICITY   = .00329359
INCLINATION    = 98.7905
RA_OF_ASC_NODE = 353.9439
ARG_OF_PERICENTER = 110.8135
MEAN_ANOMALY   = 249.6584

EPHEMERIS_TYPE = 0
CLASSIFICATION_TYPE = U
NORAD_CAT_ID   = 21574
ELEMENT_SET_NO = 999
REV_AT_EPOCH   = 80268
BSTAR          = .16691215E-3
MEAN_MOTION_DOT = .476E-5
MEAN_MOTION_DDOT = 0

CCSDS_OMM_VERS = 2.0
CREATION_DATE  = 
ORIGINATOR     = 

OBJECT_NAME    = ARIANE 40 R/B
OBJECT_ID      = 1991-050F
CENTER_NAME    = EARTH
REF_FRAME      = TEME
TIME_SYSTEM    = UTC
MEAN_ELEMENT_THEORY = SGP/SGP4

EPOCH          = 2025-12-08T18:20:27.794112
MEAN_MOTION    = 14.42809111
ECCENTRICITY   = .00030364
INCLINATION    = 98.2169
RA_OF_ASC_NODE = 33.3380
ARG_OF_PERICENTER = 12.7312
MEAN_ANOMALY   = 347.3955

EPHEMERIS_TYPE = 0
CLASSIFICATION_TYPE = U
NORAD_CAT_ID   = 21610
ELEMENT_SET_NO = 999
REV_AT_EPOCH   = 80588
BSTAR          = .24256268E-3
MEAN_MOTION_DOT = .767E-5
MEAN_MOTION_DDOT = 0

CCSDS_OMM_VERS = 2.0
CREATION_DATE  = 
ORIGINATOR     = 

OBJECT_NAME    = INTERCOSMOS 25
OBJECT_ID      = 1991-086A
CENTER_NAME    = EARTH
REF_FRAME      = TEME
TIME_SYSTEM    = UTC
MEAN_ELEMENT_THEORY = SGP/SGP4

EPOCH          = 2025-12-09T00:03:54.804096
MEAN_MOTION    = 12.11709193
ECCENTRICITY   = .14868529
INCLINATION    = 82.6071
RA_OF_ASC_NODE = 4.8352
ARG_OF_PERICENTER = 312.4541
MEAN_ANOMALY   = 35.9772

EPHEMERIS_TYPE = 0
CLASSIFICATION_TYPE = U
NORAD_CAT_ID   = 21819
ELEMENT_SET_NO = 999
REV_AT_EPOCH   = 48570
BSTAR          = .40198737E-3
MEAN_MOTION_DOT = .2025E-4
MEAN_MOTION_DDOT = 0

CCSDS_OMM_VERS = 2.0
CREATION_DATE  = 
ORIGINATOR     = 

OBJECT_NAME    = SL-8 R/B
OBJECT_ID      = 1992-008B
CENTER_NAME    = EARTH
REF_FRAME      = TEME
TIME_SYSTEM    = UTC
MEAN_ELEMENT_THEORY = SGP/SGP4

EPOCH          = 2025-12-08T23:17:19.960224
MEAN_MOTION    = 13.75957672
ECCENTRICITY   = .00354067
INCLINATION    = 82.9262
RA_OF_ASC_NODE = 335.2504
ARG_OF_PERICENTER = 30.1372
MEAN_ANOMALY   = 29.1674

EPHEMERIS_TYPE = 0
CLASSIFICATION_TYPE = U
NORAD_CAT_ID   = 21876
ELEMENT_SET_NO = 999
REV_AT_EPOCH   = 69694
BSTAR          = .14546045E-3
MEAN_MOTION_DOT = .157E-5
MEAN_MOTION_DDOT = 0

CCSDS_OMM_VERS = 2.0
CREATION_DATE  = 
ORIGINATOR     = 

OBJECT_NAME    = SL-8 R/B
OBJECT_ID      = 1992-020B
CENTER_NAME    = EARTH
REF_FRAME      = TEME
TIME_SYSTEM    = UTC
MEAN_ELEMENT_THEORY = SGP/SGP4

EPOCH          = 2025-12-08T16:25:17.154048
MEAN_MOTION    = 13.75526055
ECCENTRICITY   = .00286339
INCLINATION    = 82.9311
RA_OF_ASC_NODE = 221.3289
ARG_OF_PERICENTER = 189.5951
MEAN_ANOMALY   = 179.2732

EPHEMERIS_TYPE = 0
CLASSIFICATION_TYPE = U
NORAD_CAT_ID   = 21938
ELEMENT_SET_NO = 999
REV_AT_EPOCH   = 68862
BSTAR          = .12682355E-3
MEAN_MOTION_DOT = .138E-5
MEAN_MOTION_DDOT = 0

CCSDS_OMM_VERS = 2.0
CREATION_DATE  = 
ORIGINATOR     = 

OBJECT_NAME    = USA 81
OBJECT_ID      = 1992-023A
CENTER_NAME    = EARTH
REF_FRAME      = TEME
TIME_SYSTEM    = UTC
MEAN_ELEMENT_THEORY = SGP/SGP4

EPOCH          = 2025-12-08T23:34:19.198560
MEAN_MOTION    = 14.32324698
ECCENTRICITY   = .00015678
INCLINATION    = 85.0084
RA_OF_ASC_NODE = 183.7434
ARG_OF_PERICENTER = 63.0791
MEAN_ANOMALY   = 297.0562

EPHEMERIS_TYPE = 0
CLASSIFICATION_TYPE = U
NORAD_CAT_ID   = 21949
ELEMENT_SET_NO = 999
REV_AT_EPOCH   = 8180
BSTAR          = .90294071E-4
MEAN_MOTION_DOT = .264E-5
MEAN_MOTION_DDOT = 0

CCSDS_OMM_VERS = 2.0
CREATION_DATE  = 
ORIGINATOR     = 

OBJECT_NAME    = COSMOS 2219
OBJECT_ID      = 1992-076A
CENTER_NAME    = EARTH
REF_FRAME      = TEME
TIME_SYSTEM    = UTC
MEAN_ELEMENT_THEORY = SGP/SGP4

EPOCH          = 2025-12-08T23:24:37.310112
MEAN_MOTION    = 14.14062655
ECCENTRICITY   = .00190119
INCLINATION    = 71.0587
RA_OF_ASC_NODE = 207.7019
ARG_OF_PERICENTER = 331.9074
MEAN_ANOMALY   = 28.1021

EPHEMERIS_TYPE = 0
CLASSIFICATION_TYPE = U
NORAD_CAT_ID   = 22219
ELEMENT_SET_NO = 999
REV_AT_EPOCH   = 70555
BSTAR          = -.40256336E-4
MEAN_MOTION_DOT = -.124E-5
MEAN_MOTION_DDOT = 0

CCSDS_OMM_VERS = 2.0
CREATION_DATE  = 
ORIGINATOR     = 

OBJECT_NAME    = SL-16 R/B
OBJECT_ID      = 1992-076B
CENTER_NAME    = EARTH
REF_FRAME      = TEME
TIME_SYSTEM    = UTC
MEAN_ELEMENT_THEORY = SGP/SGP4

EPOCH          = 2025-12-08T20:32:35.376864
MEAN_MOTION    = 14.16841362
ECCENTRICITY   = .00149369
INCLINATION    = 71.0011
RA_OF_ASC_NODE = 19.7135
ARG_OF_PERICENTER = 239.4702
MEAN_ANOMALY   = 292.9185

EPHEMERIS_TYPE = 0
CLASSIFICATION_TYPE = U
NORAD_CAT_ID   = 22220
ELEMENT_SET_NO = 999
REV_AT_EPOCH   = 70896
BSTAR          = -.42018132E-4
MEAN_MOTION_DOT = -.132E-5
MEAN_MOTION_DDOT = 0

CCSDS_OMM_VERS = 2.0
CREATION_DATE  = 
ORIGINATOR     = 

OBJECT_NAME    = COSMOS 2221
OBJECT_ID      = 1992-080A
CENTER_NAME    = EARTH
REF_FRAME      = TEME
TIME_SYSTEM    = UTC
MEAN_ELEMENT_THEORY = SGP/SGP4

EPOCH          = 2025-12-09T03:19:23.949696
MEAN_MOTION    = 14.95738312
ECCENTRICITY   = .0015836
INCLINATION    = 82.5042
RA_OF_ASC_NODE = 5.7722
ARG_OF_PERICENTER = 132.7509
MEAN_ANOMALY   = 227.5048

EPHEMERIS_TYPE = 0
CLASSIFICATION_TYPE = U
NORAD_CAT_ID   = 22236
ELEMENT_SET_NO = 999
REV_AT_EPOCH   = 76725
BSTAR          = .23972E-3
MEAN_MOTION_DOT = .2702E-4
MEAN_MOTION_DDOT = 0

CCSDS_OMM_VERS = 2.0
CREATION_DATE  = 
ORIGINATOR     = 

OBJECT_NAME    = SL-16 R/B
OBJECT_ID      = 1992-093B
CENTER_NAME    = EARTH
REF_FRAME      = TEME
TIME_SYSTEM    = UTC
MEAN_ELEMENT_THEORY = SGP/SGP4

EPOCH          = 2025-12-08T22:16:06.456864
MEAN_MOTION    = 14.15426807
ECCENTRICITY   = .00020893
INCLINATION    = 71.0201
RA_OF_ASC_NODE = 194.7978
ARG_OF_PERICENTER = 83.9602
MEAN_ANOMALY   = 276.1759

EPHEMERIS_TYPE = 0
CLASSIFICATION_TYPE = U
NORAD_CAT_ID   = 22285
ELEMENT_SET_NO = 999
REV_AT_EPOCH   = 70031
BSTAR          = .12271582E-3
MEAN_MOTION_DOT = .192E-5
MEAN_MOTION_DDOT = 0

CCSDS_OMM_VERS = 2.0
CREATION_DATE  = 
ORIGINATOR     = 

OBJECT_NAME    = COSMOS 2228
OBJECT_ID      = 1992-094A
CENTER_NAME    = EARTH
REF_FRAME      = TEME
TIME_SYSTEM    = UTC
MEAN_ELEMENT_THEORY = SGP/SGP4

EPOCH          = 2025-12-08T22:42:52.162848
MEAN_MOTION    = 14.96700074
ECCENTRICITY   = .0016327
INCLINATION    = 82.5177
RA_OF_ASC_NODE = 324.1638
ARG_OF_PERICENTER = 245.2790
MEAN_ANOMALY   = 114.6734

EPHEMERIS_TYPE = 0
CLASSIFICATION_TYPE = U
NORAD_CAT_ID   = 22286
ELEMENT_SET_NO = 999
REV_AT_EPOCH   = 76248
BSTAR          = .28703279E-3
MEAN_MOTION_DOT = .331E-4
MEAN_MOTION_DDOT = 0

